[{"OBJECT_NAME":"STARLINK-32265","OBJECT_ID":"2024-141T","EPOCH":"2026-03-09T17:15:30.420576","MEAN_MOTION":15.30202125,"ECCENTRICITY":0.0001128,"INCLINATION":53.1608,"RA_OF_ASC_NODE":242.557,"ARG_OF_PERICENTER":92.9948,"MEAN_ANOMALY":267.1182,"EPHEMERIS_TYPE":0,"CLASSIFICATION_TYPE":"U","NORAD_CAT_ID":60415,"ELEMENT_SET_NO":999,"REV_AT_EPOCH":8958,"BSTAR":6.0323599e-5,"MEAN_MOTION_DOT":1.428e-5,"MEAN_MOTION_DDOT":0},{"OBJECT_NAME":"YAOGAN-43 01F","OBJECT_ID":"2024-148F","EPOCH":"2026-03-10T00:23:08.877408","MEAN_MOTION":15.29824616,"ECCENTRICITY":0.00057048,"INCLINATION":34.9925,"RA_OF_ASC_NODE":59.8891,"ARG_OF_PERICENTER":18.4862,"MEAN_ANOMALY":341.6062,"EPHEMERIS_TYPE":0,"CLASSIFICATION_TYPE":"U","NORAD_CAT_ID":60463,"ELEMENT_SET_NO":999,"REV_AT_EPOCH":8707,"BSTAR":0.00058388219,"MEAN_MOTION_DOT":0.00017308,"MEAN_MOTION_DDOT":0}]
